STARLINK-36700          
1 67662U 26022Q   26045.25002315 -.01143175  00000+0 -64042-2 0  9995
2 67662  97.2805  78.0880 0001437  88.1655 145.8618 15.81682828  3127
STARLINK-36675          
1 67663U 26022R   26045.25002315 -.00863696  00000+0 -48467-2 0  9995
2 67663  97.2805  78.0846 0001817  66.1176 162.0134 15.81370058  3129
STARLINK-36404          
1 67664U 26022S   26045.25002315 -.01459662  00000+0 -81299-2 0  9991
2 67664  97.2797  78.0894 0001473  87.8645 152.1573 15.82019306  3092
STARLINK-36399          
1 67665U 26022T   26045.25002315 -.01606425  00000+0 -89749-2 0  9991
2 67665  97.2799  78.0915 0001543  73.0796 171.2852 15.82230996  3093
STARLINK-36365          
1 67666U 26022U   26045.25002315 -.01869001  00000+0 -10252-1 0  9995
2 67666  97.2799  78.0944 0001427  84.5860 166.5189 15.82588839  3122
STARLINK-36622          
1 67667U 26022V   26045.25002315 -.01840716  00000+0 -99555-2 0  9992
2 67667  97.2800  78.0971 0001166  92.2294 165.9838 15.82845079  3129
STARLINK-36625          
1 67668U 26022W   26045.25002315 -.01660380  00000+0 -89566-2 0  9991
2 67668  97.2797  78.1012 0001571  89.5497 176.4088 15.83078277  3129
STARLINK-36639          
1 67669U 26022X   26045.25002315 -.01835959  00000+0 -96564-2 0  9994
2 67669  97.2795  78.1033 0001301  89.7349 183.5790 15.83425379  3128
STARLINK-36596          
1 67670U 26022Y   26045.25002315 -.01794757  00000+0 -95408-2 0  9992
2 67670  97.2790  78.1050 0001129  83.9328 195.4729 15.83655737  3122
STARLINK-36297          
1 67671U 26022Z   26045.25002315 -.01789794  00000+0 -93378-2 0  9992
2 67671  97.2785  78.1092 0001481  79.2027 210.3257 15.84032455  3128
STARLINK-36616          
1 67672U 26022AA  26045.25002315 -.01791819  00000+0 -94307-2 0  9997
2 67672  97.2790  78.1074 0001294  85.0503 199.7665 15.83856125  3121
COSMOS 2600             
1 67674U 26023A   26045.26164966  .00071656  00000+0  34832-3 0  9997
2 67674  96.6501 121.6375 0001723  60.2239 299.9203 15.82232905  1348
2026-023B               
1 67675U 26023B   26045.25944878  .00012922  00000+0  55910-3 0  9996
2 67675  96.6410 120.9247 0017523 214.1350 145.8763 15.22400449  1295
2026-023C               
1 67676U 26023C   26045.25914693  .00012806  00000+0  55273-3 0  9992
2 67676  96.6445 120.9372 0018744 203.6477 156.3902 15.22465874  1455
2026-023D               
1 67677U 26023D   26045.25975941  .00010525  00000+0  45652-3 0  9992
2 67677  96.6476 120.9203 0018858 208.9609 151.0585 15.22338310  1288
2026-023E               
1 67678U 26023E   26045.25930848  .00012853  00000+0  55525-3 0  9996
2 67678  96.6369 120.9250 0018677 208.3436 151.6788 15.22437021  1283
2026-023F               
1 67679U 26023F   26045.25851322  .00012434  00000+0  53461-3 0  9998
2 67679  96.6374 123.4214 0020671 202.9595 157.0722 15.22566780  1273
2026-023G               
1 67680U 26023G   26044.79866101  .00003662  00000+0  15944-3 0  9996
2 67680  96.6303 123.0164 0022387 201.1706 158.8609 15.22519445  1200
2026-023H               
1 67681U 26023H   26045.12709678  .00004338  00000+0  18830-3 0  9998
2 67681  96.6447 123.3015 0022232 199.3589 160.6808 15.22542865  1253
2026-023J               
1 67682U 26023J   26045.25837094  .00012414  00000+0  53259-3 0  9995
2 67682  96.6403 123.4319 0022462 195.5519 164.5032 15.22604160  1271
ISS OBJECT XZ           
1 67683U 98067XZ  26045.27192640  .00041719  00000+0  73561-3 0  9994
2 67683  51.6301 188.0321 0010630 110.4640 249.7491 15.49925317  1156
GXIBA-1                 
1 67684U 98067YA  26045.26865816  .00075008  00000+0  12728-2 0  9991
2 67684  51.6304 188.0125 0012360 104.2585 255.9778 15.50730945  1153
CORAL                   
1 67685U 98067YB  26045.27126273  .00044668  00000+0  78218-3 0  9995
2 67685  51.6301 188.0281 0012562 106.0174 254.2200 15.50065759  1158
ISS OBJECT YC           
1 67686U 98067YC  26045.27070141  .00052245  00000+0  90918-3 0  9999
2 67686  51.6307 188.0255 0007758  80.7495 279.4371 15.50225641  1157
LEOPARD                 
1 67687U 98067YD  26045.27153491  .00042208  00000+0  74266-3 0  9996
2 67687  51.6306 188.0303 0007827  82.6227 277.5652 15.50007453  1073
ISS OBJECT YE           
1 67688U 98067YE  26045.27089425  .00048863  00000+0  85324-3 0  9992
2 67688  51.6308 188.0270 0007740  81.3262 278.8604 15.50158147  1076
PRC TEST SPACECRAFT 4   
1 67689U 26024A   26045.24774769 -.00000023  00000+0  21788-4 0  9998
2 67689  49.9853 132.8131 0006212 269.3773  90.6457 14.91671582  1087
CZ-2F R/B               
1 67690U 26024B   26043.68605831  .00010419  00000+0  20043-3 0  9990
2 67690  49.9859 139.9043 0177333 171.2576 189.1542 15.33223548   855
CZ-2F DEB               
1 67691U 26024C   26045.25537887  .00694791  10274-4  95823-3 0  9999
2 67691  49.9091 130.5817 0259549 184.4797 175.3849 15.64885891  1106
CZ-2F DEB               
1 67692U 26024D   26043.47249242  .00008960  00000+0  18237-3 0  9999
2 67692  50.2497 141.4689 0244463 185.6574 174.1612 15.21014172   827
STARLINK-36748          
1 67693U 26025A   26045.19362417 -.00393472  60898-4 -59444-3 0  9990
2 67693  97.2813 155.3420 0000900  51.7751 308.3611 16.04555506  2223
STARLINK-36753          
1 67694U 26025B   26045.25387437  .00555075  14883-3  81573-3 0  9994
2 67694  97.2822 155.4135 0003532 112.3543 247.8113 16.05078041  2246
STARLINK-36750          
1 67695U 26025C   26045.06841658  .00619808  18707-3  93100-3 0  9997
2 67695  97.2817 155.2077 0001124 137.7676 222.3691 16.04736633  2209
STARLINK-36401          
1 67696U 26025D   26042.66668981 -.00784211  23475-3 -86759-3 0  9990
2 67696  97.2834 152.5655 0001311  70.6850  83.4290 16.09617568  1668
STARLINK-36704          
1 67697U 26025E   26042.66668981 -.00766309  22583-3 -83083-3 0  9995
2 67697  97.2831 152.5663 0001357  56.7193  99.2680 16.09927722  1664
STARLINK-36697          
1 67698U 26025F   26045.25303634  .00624914  19262-3  89804-3 0  9995
2 67698  97.2812 155.4142 0003873 114.4445 245.7241 16.05454148  2233
STARLINK-36716          
1 67699U 26025G   26045.25262922  .00541485  14252-3  76966-3 0  9990
2 67699  97.2803 155.4142 0002112 350.8311   9.2932 16.05634695  2245
STARLINK-36712          
1 67700U 26025H   26042.66668981 -.00742587  21415-3 -78465-3 0  9993
2 67700  97.2831 152.5673 0001185  58.2875 100.2798 16.10321202  1614
STARLINK-36713          
1 67701U 26025J   26042.66668981 -.00744148  21540-3 -77892-3 0  9991
2 67701  97.2829 152.5680 0001546  59.7434  99.7040 16.10465067  1821
STARLINK-36695          
1 67702U 26025K   26042.66668981 -.00731351  20888-3 -76000-3 0  9998
2 67702  97.2828 152.5677 0001620  67.6566  92.5948 16.10573723  1663
STARLINK-36630          
1 67703U 26025L   26042.66668981 -.00720323  20335-3 -74345-3 0  9993
2 67703  97.2829 152.5683 0001312  57.8864 103.1820 16.10677659  1663
STARLINK-36338          
1 67704U 26025M   26042.66668981 -.00700838  19362-3 -71670-3 0  9999
2 67704  97.2828 152.5686 0001226  62.1234  99.8436 16.10815790  1710
STARLINK-36316          
1 67705U 26025N   26045.24981645  .00761159  31876-3  83163-3 0  9997
2 67705  97.2808 155.4194 0011219 250.8899 109.1170 16.09725676  2230
STARLINK-36707          
1 67706U 26025P   26042.66668981 -.00677667  18298-3 -67301-3 0  9997
2 67706  97.2825 152.5698 0001250  68.8507  95.8146 16.11257162  1500
STARLINK-36645          
1 67707U 26025Q   26045.18792303  .00752949  31017-3  83355-3 0  9990
2 67707  97.2801 155.3518 0010164 234.1303 125.9038 16.09546508  2220
STARLINK-36287          
1 67708U 26025R   26042.66668981 -.00659968  17449-3 -65010-3 0  9995
2 67708  97.2824 152.5700 0001350  60.4884 105.0220 16.11378129  1821
STARLINK-36698          
1 67709U 26025S   26042.66668981 -.00622810  15772-3 -59371-3 0  9992
2 67709  97.2823 152.5713 0001551  74.0195  94.3541 16.11865850  1664
STARLINK-36344          
1 67710U 26025T   26042.66668981 -.00633611  16216-3 -61658-3 0  9990
2 67710  97.2822 152.5703 0001315  51.4019 115.1515 16.11558161  1821
STARLINK-36687          
1 67711U 26025U   26042.66668981 -.00629780  16066-3 -60699-3 0  9990
2 67711  97.2823 152.5708 0001172  62.8343 104.5958 16.11702960  1826
STARLINK-36705          
1 67712U 26025V   26044.99820309  .00846898  41697-3  83753-3 0  9996
2 67712  97.2794 155.1509 0010372 244.3385 115.6829 16.11293436  2191
STARLINK-36708          
1 67713U 26025W   26045.05928096  .00784142  35323-3  75812-3 0  9996
2 67713  97.2804 155.2182 0009401 242.2135 117.8197 16.11640300  2203
STARLINK-36702          
1 67714U 26025X   26045.18406224  .00843192  41310-3  83223-3 0  9994
2 67714  97.2796 155.3562 0010360 234.3607 125.6713 16.11322342  2225
STARLINK-36718          
1 67715U 26025Y   26042.66668981 -.00546345  12504-3 -49255-3 0  9997
2 67715  97.2821 152.5741 0001261  60.2520 113.3753 16.12688008  1663
STARLINK-36715          
1 67716U 26025Z   26042.66668981 -.00454156  88565-4 -41087-3 0  9992
2 67716  97.2820 152.5731 0001394  46.7177 126.0886 16.12622621  1720
STARLINK-36385          
1 67717U 26025AA  26045.24671526  .00818079  38462-3  81575-3 0  9991
2 67717  97.2809 155.4238 0010845 243.3595 116.6579 16.11147886  2237
CZ-2F DEB               
1 67718U 26024E   26045.27721681  .00268714  00000+0  54843-2 0  9997
2 67718  50.3149 132.9226 0266301 188.0457 171.6185 15.15133208  1075
CZ-2F DEB               
1 67719U 26024F   26045.29866736  .00200106  00000+0  51858-2 0  9995
2 67719  49.7904 133.8627 0338182 177.7821 182.4714 14.96119491   735
CZ-2F DEB               
1 67720U 26024G   26045.24450125  .00206547  00000+0  54904-2 0  9993
2 67720  49.8302 134.2457 0348978 174.2430 186.2686 14.93432976  1046
2026-027A               
1 67746U 26027A   26045.29419757  .00009545  00000+0  48236-3 0  9996
2 67746  97.4871 174.5669 0009219 282.7821  77.2382 15.17244308   315
